*******************************************************************************
Ephemeris / WWW_USER Mon Jul 15 19:12:20 2024 Pasadena, USA      / Horizons    
*******************************************************************************
Target body name: (2018 VS1)                      {source: JPL#4}
Center body name: Earth (399)                     {source: DE441}
Center-site name: Gemini South Obs., Cerro Pachon
*******************************************************************************
Start time      : A.D. 2019-Jan-08 23:58:00.0000 UT      
Stop  time      : A.D. 2019-Jan-09 09:41:00.0000 UT      
Step-size       : 1 minutes
*******************************************************************************
Target pole/equ : undefined
Target radii    : undefined                                                    
Center geodetic : 289.2634, -30.2406227, 2.71233  {E-lon(deg),Lat(deg),Alt(km)}
Center cylindric: 289.2634,5517.21435,-3194.81213 {E-lon(deg),Dxy(km),Dz(km)}
Center pole/equ : ITRF93                          {East-longitude positive}
Center radii    : 6378.137, 6378.137, 6356.752 km {Equator_a, b, pole_c}       
Target primary  : Sun
Vis. interferer : MOON (R_eq= 1737.400) km        {source: DE441}
Rel. light bend : Sun                             {source: DE441}
Rel. lght bnd GM: 1.3271E+11 km^3/s^2                                          
Small-body perts: Yes                             {source: SB441-N16}
Atmos refraction: NO (AIRLESS)
RA format       : HMS
Time format     : CAL 
Calendar mode   : Mixed Julian/Gregorian
RTS-only print  : NO       
EOP file        : eop.240715.p241008                                           
EOP coverage    : DATA-BASED 1962-JAN-20 TO 2024-JUL-15. PREDICTS-> 2024-OCT-07
Units conversion: 1 au= 149597870.700 km, c= 299792.458 km/s, 1 day= 86400.0 s 
Table cut-offs 1: Elevation (-90.0deg=NO ),Airmass (>38.000=NO), Daylight (YES)
Table cut-offs 2: Solar elongation (  0.0,180.0=NO ),Local Hour Angle( 0.0=NO )
Table cut-offs 3: RA/DEC angular rate (     0.0=NO )                           
*******************************************************************************
Initial IAU76/J2000 heliocentric ecliptic osculating elements (au, days, deg.):
  EPOCH=  2458427.5 ! 2018-Nov-05.00 (TDB)         Residual RMS= .21634        
   EC= .3907275528854954   QR= .7806320880190512   TP= 2458486.1030618688      
   OM= 55.95483604725189   W=  67.17004921097404   IN= 3.601110299269385       
  Equivalent ICRF heliocentric cartesian coordinates (au, au/d):
   X= 7.595935200506908E-01  Y= 6.354459268576240E-01  Z= 2.586666727482118E-01
  VX=-1.643099138746886E-02 VY= 7.530892270769961E-03 VZ= 4.533522122669557E-03
Asteroid physical parameters (km, seconds, rotational period in hours):        
   GM= n.a.                RAD= n.a.               ROTPER= n.a.                
   H= 26.6                 G= .150                 B-V= n.a.                   
                           ALBEDO= n.a.            STYP= n.a.                  
*******************************************************************************
 Date__(UT)__HR:MN     R.A._________(ICRF)_________DEC
******************************************************
$$SOE
 2019-Jan-09 04:04     15 46 50.271961 -13 19 08.15648
 2019-Jan-09 04:05     15 46 50.372341 -13 19 08.67391
 2019-Jan-09 04:06     15 46 50.472705 -13 19 09.19139
 2019-Jan-09 04:07     15 46 50.573056 -13 19 09.70893
 2019-Jan-09 04:08     15 46 50.673392 -13 19 10.22653
 2019-Jan-09 04:09     15 46 50.773714 -13 19 10.74418
 2019-Jan-09 04:10     15 46 50.874021 -13 19 11.26188
 2019-Jan-09 04:11     15 46 50.974314 -13 19 11.77965
 2019-Jan-09 04:12     15 46 51.074592 -13 19 12.29746
 2019-Jan-09 04:13     15 46 51.174856 -13 19 12.81533
 2019-Jan-09 04:14     15 46 51.275104 -13 19 13.33326
 2019-Jan-09 04:15     15 46 51.375338 -13 19 13.85124
 2019-Jan-09 04:16     15 46 51.475557 -13 19 14.36927
 2019-Jan-09 04:17     15 46 51.575760 -13 19 14.88736
 2019-Jan-09 04:18     15 46 51.675949 -13 19 15.40550
 2019-Jan-09 04:19     15 46 51.776123 -13 19 15.92370
 2019-Jan-09 04:20     15 46 51.876281 -13 19 16.44195
 2019-Jan-09 04:21     15 46 51.976424 -13 19 16.96025
 2019-Jan-09 04:22     15 46 52.076552 -13 19 17.47860
 2019-Jan-09 04:23     15 46 52.176664 -13 19 17.99701
 2019-Jan-09 04:24     15 46 52.276761 -13 19 18.51546
 2019-Jan-09 04:25     15 46 52.376842 -13 19 19.03397
 2019-Jan-09 04:26     15 46 52.476907 -13 19 19.55253
 2019-Jan-09 04:27     15 46 52.576957 -13 19 20.07115
 2019-Jan-09 04:28     15 46 52.676992 -13 19 20.58981
 2019-Jan-09 04:29     15 46 52.777010 -13 19 21.10852
 2019-Jan-09 04:30     15 46 52.877013 -13 19 21.62729
 2019-Jan-09 04:31     15 46 52.976999 -13 19 22.14610
 2019-Jan-09 04:32     15 46 53.076970 -13 19 22.66497
 2019-Jan-09 04:33     15 46 53.176924 -13 19 23.18389
 2019-Jan-09 04:34     15 46 53.276862 -13 19 23.70285
 2019-Jan-09 04:35     15 46 53.376785 -13 19 24.22187
 2019-Jan-09 04:36     15 46 53.476690 -13 19 24.74093
 2019-Jan-09 04:37     15 46 53.576580 -13 19 25.26004
 2019-Jan-09 04:38     15 46 53.676453 -13 19 25.77920
 2019-Jan-09 04:39     15 46 53.776310 -13 19 26.29841
 2019-Jan-09 04:40     15 46 53.876150 -13 19 26.81767
 2019-Jan-09 04:41     15 46 53.975974 -13 19 27.33697
 2019-Jan-09 04:42     15 46 54.075781 -13 19 27.85633
 2019-Jan-09 04:43     15 46 54.175571 -13 19 28.37573
 2019-Jan-09 04:44     15 46 54.275345 -13 19 28.89518
 2019-Jan-09 04:45     15 46 54.375101 -13 19 29.41467
 2019-Jan-09 04:46     15 46 54.474841 -13 19 29.93421
 2019-Jan-09 04:47     15 46 54.574564 -13 19 30.45380
 2019-Jan-09 04:48     15 46 54.674270 -13 19 30.97343
 2019-Jan-09 04:49     15 46 54.773959 -13 19 31.49311
 2019-Jan-09 04:50     15 46 54.873630 -13 19 32.01283
 2019-Jan-09 04:51     15 46 54.973285 -13 19 32.53260
 2019-Jan-09 04:52     15 46 55.072922 -13 19 33.05242
 2019-Jan-09 04:53     15 46 55.172542 -13 19 33.57227
 2019-Jan-09 04:54     15 46 55.272145 -13 19 34.09218
 2019-Jan-09 04:55     15 46 55.371730 -13 19 34.61213
 2019-Jan-09 04:56     15 46 55.471298 -13 19 35.13212
 2019-Jan-09 04:57     15 46 55.570848 -13 19 35.65215
 2019-Jan-09 04:58     15 46 55.670381 -13 19 36.17223
 2019-Jan-09 04:59     15 46 55.769896 -13 19 36.69235
 2019-Jan-09 05:00     15 46 55.869394 -13 19 37.21251
 2019-Jan-09 05:01     15 46 55.968873 -13 19 37.73272
 2019-Jan-09 05:02     15 46 56.068335 -13 19 38.25297
 2019-Jan-09 05:03     15 46 56.167779 -13 19 38.77326
 2019-Jan-09 05:04     15 46 56.267205 -13 19 39.29359
 2019-Jan-09 05:05     15 46 56.366613 -13 19 39.81397
 2019-Jan-09 05:06     15 46 56.466004 -13 19 40.33438
 2019-Jan-09 05:07     15 46 56.565376 -13 19 40.85484
 2019-Jan-09 05:08     15 46 56.664730 -13 19 41.37533
 2019-Jan-09 05:09     15 46 56.764066 -13 19 41.89587
 2019-Jan-09 05:10     15 46 56.863383 -13 19 42.41645
 2019-Jan-09 05:11     15 46 56.962683 -13 19 42.93706
 2019-Jan-09 05:12     15 46 57.061964 -13 19 43.45772
 2019-Jan-09 05:13     15 46 57.161226 -13 19 43.97841
 2019-Jan-09 05:14     15 46 57.260470 -13 19 44.49914
 2019-Jan-09 05:15     15 46 57.359696 -13 19 45.01992
 2019-Jan-09 05:16     15 46 57.458904 -13 19 45.54073
 2019-Jan-09 05:17     15 46 57.558092 -13 19 46.06157
 2019-Jan-09 05:18     15 46 57.657262 -13 19 46.58246
 2019-Jan-09 05:19     15 46 57.756414 -13 19 47.10338
 2019-Jan-09 05:20     15 46 57.855546 -13 19 47.62434
 2019-Jan-09 05:21     15 46 57.954660 -13 19 48.14534
 2019-Jan-09 05:22     15 46 58.053756 -13 19 48.66637
 2019-Jan-09 05:23     15 46 58.152832 -13 19 49.18744
 2019-Jan-09 05:24     15 46 58.251889 -13 19 49.70855
 2019-Jan-09 05:25     15 46 58.350928 -13 19 50.22969
 2019-Jan-09 05:26     15 46 58.449947 -13 19 50.75087
 2019-Jan-09 05:27     15 46 58.548948 -13 19 51.27208
 2019-Jan-09 05:28     15 46 58.647929 -13 19 51.79333
 2019-Jan-09 05:29     15 46 58.746891 -13 19 52.31461
 2019-Jan-09 05:30     15 46 58.845834 -13 19 52.83592
 2019-Jan-09 05:31     15 46 58.944758 -13 19 53.35727
 2019-Jan-09 05:32     15 46 59.043663 -13 19 53.87865
 2019-Jan-09 05:33     15 46 59.142548 -13 19 54.40007
 2019-Jan-09 05:34     15 46 59.241414 -13 19 54.92152
 2019-Jan-09 05:35     15 46 59.340260 -13 19 55.44300
 2019-Jan-09 05:36     15 46 59.439088 -13 19 55.96451
 2019-Jan-09 05:37     15 46 59.537895 -13 19 56.48606
 2019-Jan-09 05:38     15 46 59.636683 -13 19 57.00764
 2019-Jan-09 05:39     15 46 59.735452 -13 19 57.52925
 2019-Jan-09 05:40     15 46 59.834201 -13 19 58.05089
 2019-Jan-09 05:41     15 46 59.932931 -13 19 58.57256
 2019-Jan-09 05:42     15 47 00.031640 -13 19 59.09426
 2019-Jan-09 05:43     15 47 00.130330 -13 19 59.61599
 2019-Jan-09 05:44     15 47 00.229001 -13 20 00.13775
 2019-Jan-09 05:45     15 47 00.327651 -13 20 00.65954
 2019-Jan-09 05:46     15 47 00.426282 -13 20 01.18136
 2019-Jan-09 05:47     15 47 00.524893 -13 20 01.70321
 2019-Jan-09 05:48     15 47 00.623484 -13 20 02.22509
 2019-Jan-09 05:49     15 47 00.722055 -13 20 02.74700
 2019-Jan-09 05:50     15 47 00.820606 -13 20 03.26894
 2019-Jan-09 05:51     15 47 00.919137 -13 20 03.79090
 2019-Jan-09 05:52     15 47 01.017648 -13 20 04.31289
 2019-Jan-09 05:53     15 47 01.116139 -13 20 04.83491
 2019-Jan-09 05:54     15 47 01.214609 -13 20 05.35695
 2019-Jan-09 05:55     15 47 01.313060 -13 20 05.87902
 2019-Jan-09 05:56     15 47 01.411490 -13 20 06.40112
 2019-Jan-09 05:57     15 47 01.509901 -13 20 06.92324
 2019-Jan-09 05:58     15 47 01.608291 -13 20 07.44539
 2019-Jan-09 05:59     15 47 01.706661 -13 20 07.96756
 2019-Jan-09 06:00     15 47 01.805010 -13 20 08.48976
 2019-Jan-09 06:01     15 47 01.903339 -13 20 09.01199
 2019-Jan-09 06:02     15 47 02.001648 -13 20 09.53423
 2019-Jan-09 06:03     15 47 02.099936 -13 20 10.05651
 2019-Jan-09 06:04     15 47 02.198204 -13 20 10.57880
 2019-Jan-09 06:05     15 47 02.296452 -13 20 11.10112
 2019-Jan-09 06:06     15 47 02.394678 -13 20 11.62346
